{"type": "FeatureCollection", "features": [ {"type": "Feature", "properties": {"norad_id": 66795, "name": "STARLINK-36047", "group": "last-30-days", "lat": 13.247476390724797, "lon": 14.563970399793993, "alt_km": 369.9781651854337, "timestamp": "2025-12-19T18:58:40.328130+00:00", "meta": {"OBJECT_NAME": "STARLINK-36047", "OBJECT_ID": "2025-278E", "EPOCH": "2025-12-19T08:00:01.999872", "MEAN_MOTION": 15.67528418, "ECCENTRICITY": 0.00014526, "INCLINATION": 42.9992, "RA_OF_ASC_NODE": 211.9389, "ARG_OF_PERICENTER": 269.1235, "MEAN_ANOMALY": 188.6228, "EPHEMERIS_TYPE": 0, "CLASSIFICATION_TYPE": "U", "NORAD_CAT_ID": 66795, "ELEMENT_SET_NO": 999, "REV_AT_EPOCH": 391, "BSTAR": -0.020390023, "MEAN_MOTION_DOT": -0.02007724, "MEAN_MOTION_DDOT": 0}, "tle": {"line1": "1 66795U 25278E   25353.33335648 -.02007724  00000+0 -20390-1 0  9998", "line2": "2 66795  42.9992 211.9389 0001452 269.1235 188.6228 15.67528418  3918"}}, "geometry": {"type": "Point", "coordinates": [14.563970399793993, 13.247476390724797]}}, {"type": "Feature", "properties": {"norad_id": 66796, "name": "STARLINK-35964", "group": "last-30-days", "lat": 7.221927156768988, "lon": -144.4283484754629, "alt_km": 327.1410985246139, "timestamp": "2025-12-19T18:58:40.328143+00:00", "meta": {"OBJECT_NAME": "STARLINK-35964", "OBJECT_ID": "2025-278F", "EPOCH": "2025-12-19T08:00:01.999872", "MEAN_MOTION": 15.80873875, "ECCENTRICITY": 0.00017, "INCLINATION": 42.9926, "RA_OF_ASC_NODE": 210.5538, "ARG_OF_PERICENTER": 260.4336, "MEAN_ANOMALY": 24.0128, "EPHEMERIS_TYPE": 0, "CLASSIFICATION_TYPE": "U", "NORAD_CAT_ID": 66796, "ELEMENT_SET_NO": 999, "REV_AT_EPOCH": 385, "BSTAR": -0.00011721936, "MEAN_MOTION_DOT": -0.00023864, "MEAN_MOTION_DDOT": 0}, "tle": {"line1": "1 66796U 25278F   25353.33335648 -.00023864  00000+0 -11722-3 0  9991", "line2": "2 66796  42.9926 210.5538 0001700 260.4336  24.0128 15.80873875  3859"}}, "geometry": {"type": "Point", "coordinates": [-144.4283484754629, 7.221927156768988]}}, {"type": "Feature", "properties": {"norad_id": 66797, "name": "STARLINK-36099", "group": "last-30-days", "lat": 10.700758699096045, "lon": 17.48806956509365, "alt_km": 370.3703193587744, "timestamp": "2025-12-19T18:58:40.328154+00:00", "meta": {"OBJECT_NAME": "STARLINK-36099", "OBJECT_ID": "2025-278G", "EPOCH": "2025-12-19T08:00:01.999872", "MEAN_MOTION": 15.67522772, "ECCENTRICITY": 0.00014832, "INCLINATION": 42.9992, "RA_OF_ASC_NODE": 211.929, "ARG_OF_PERICENTER": 272.6617, "MEAN_ANOMALY": 188.9221, "EPHEMERIS_TYPE": 0, "CLASSIFICATION_TYPE": "U", "NORAD_CAT_ID": 66797, "ELEMENT_SET_NO": 999, "REV_AT_EPOCH": 407, "BSTAR": -0.020307594, "MEAN_MOTION_DOT": -0.02000204, "MEAN_MOTION_DDOT": 0}, "tle": {"line1": "1 66797U 25278G   25353.33335648 -.02000204  00000+0 -20308-1 0  9995", "line2": "2 66797  42.9992 211.9290 0001483 272.6617 188.9221 15.67522772  4079"}}, "geometry": {"type": "Point", "coordinates": [17.48806956509365, 10.700758699096045]}}, {"type": "Feature", "properties": {"norad_id": 66798, "name": "STARLINK-36041", "group": "last-30-days", "lat": 9.417058683281471, "lon": 18.930313416612268, "alt_km": 370.49547708844784, "timestamp": "2025-12-19T18:58:40.328166+00:00", "meta": {"OBJECT_NAME": "STARLINK-36041", "OBJECT_ID": "2025-278H", "EPOCH": "2025-12-19T08:00:01.999872", "MEAN_MOTION": 15.67527255, "ECCENTRICITY": 0.00014473, "INCLINATION": 42.9989, "RA_OF_ASC_NODE": 211.9238, "ARG_OF_PERICENTER": 271.8692, "MEAN_ANOMALY": 191.6292, "EPHEMERIS_TYPE": 0, "CLASSIFICATION_TYPE": "U", "NORAD_CAT_ID": 66798, "ELEMENT_SET_NO": 999, "REV_AT_EPOCH": 385, "BSTAR": -0.02036632, "MEAN_MOTION_DOT": -0.02005584, "MEAN_MOTION_DDOT": 0}, "tle": {"line1": "1 66798U 25278H   25353.33335648 -.02005584  00000+0 -20366-1 0  9996", "line2": "2 66798  42.9989 211.9238 0001447 271.8692 191.6292 15.67527255  3857"}}, "geometry": {"type": "Point", "coordinates": [18.930313416612268, 9.417058683281471]}}, {"type": "Feature", "properties": {"norad_id": 66799, "name": "STARLINK-36044", "group": "last-30-days", "lat": 8.127220152643217, "lon": 20.362865220829327, "alt_km": 370.6509517152599, "timestamp": "2025-12-19T18:58:40.328176+00:00", "meta": {"OBJECT_NAME": "STARLINK-36044", "OBJECT_ID": "2025-278J", "EPOCH": "2025-12-19T08:00:01.999872", "MEAN_MOTION": 15.67523513, "ECCENTRICITY": 0.00014786, "INCLINATION": 42.9989, "RA_OF_ASC_NODE": 211.9192, "ARG_OF_PERICENTER": 272.3123, "MEAN_ANOMALY": 193.1042, "EPHEMERIS_TYPE": 0, "CLASSIFICATION_TYPE": "U", "NORAD_CAT_ID": 66799, "ELEMENT_SET_NO": 999, "REV_AT_EPOCH": 401, "BSTAR": -0.020289538, "MEAN_MOTION_DOT": -0.01998691, "MEAN_MOTION_DDOT": 0}, "tle": {"line1": "1 66799U 25278J   25353.33335648 -.01998691  00000+0 -20290-1 0  9992", "line2": "2 66799  42.9989 211.9192 0001478 272.3123 193.1042 15.67523513  4018"}}, "geometry": {"type": "Point", "coordinates": [20.362865220829327, 8.127220152643217]}}, {"type": "Feature", "properties": {"norad_id": 66800, "name": "STARLINK-35996", "group": "last-30-days", "lat": 5.534874513744087, "lon": 23.199215154316455, "alt_km": 370.8934161398547, "timestamp": "2025-12-19T18:58:40.328188+00:00", "meta": {"OBJECT_NAME": "STARLINK-35996", "OBJECT_ID": "2025-278K", "EPOCH": "2025-12-19T08:00:01.999872", "MEAN_MOTION": 15.67523815, "ECCENTRICITY": 0.00014657, "INCLINATION": 42.9989, "RA_OF_ASC_NODE": 211.9091, "ARG_OF_PERICENTER": 270.5593, "MEAN_ANOMALY": 198.6914, "EPHEMERIS_TYPE": 0, "CLASSIFICATION_TYPE": "U", "NORAD_CAT_ID": 66800, "ELEMENT_SET_NO": 999, "REV_AT_EPOCH": 380, "BSTAR": -0.020299659, "MEAN_MOTION_DOT": -0.01999579, "MEAN_MOTION_DDOT": 0}, "tle": {"line1": "1 66800U 25278K   25353.33335648 -.01999579  00000+0 -20300-1 0  9993", "line2": "2 66800  42.9989 211.9091 0001465 270.5593 198.6914 15.67523815  3805"}}, "geometry": {"type": "Point", "coordinates": [23.199215154316455, 5.534874513744087]}}, {"type": "Feature", "properties": {"norad_id": 66801, "name": "STARLINK-36080", "group": "last-30-days", "lat": -0.9905178006432963, "lon": 30.20659366375555, "alt_km": 371.53249781409977, "timestamp": "2025-12-19T18:58:40.328197+00:00", "meta": {"OBJECT_NAME": "STARLINK-36080", "OBJECT_ID": "2025-278L", "EPOCH": "2025-12-19T08:00:01.999872", "MEAN_MOTION": 15.67526828, "ECCENTRICITY": 0.00014023, "INCLINATION": 42.9991, "RA_OF_ASC_NODE": 211.884, "ARG_OF_PERICENTER": 269.2785, "MEAN_ANOMALY": 209.5564, "EPHEMERIS_TYPE": 0, "CLASSIFICATION_TYPE": "U", "NORAD_CAT_ID": 66801, "ELEMENT_SET_NO": 999, "REV_AT_EPOCH": 401, "BSTAR": -0.020355587, "MEAN_MOTION_DOT": -0.02004588, "MEAN_MOTION_DDOT": 0}, "tle": {"line1": "1 66801U 25278L   25353.33335648 -.02004588  00000+0 -20356-1 0  9993", "line2": "2 66801  42.9991 211.8840 0001402 269.2785 209.5564 15.67526828  4013"}}, "geometry": {"type": "Point", "coordinates": [30.20659366375555, -0.9905178006432963]}}, {"type": "Feature", "properties": {"norad_id": 66802, "name": "STARLINK-35604", "group": "last-30-days", "lat": 6.820369588064448, "lon": 21.80055166433244, "alt_km": 370.74054968649307, "timestamp": "2025-12-19T18:58:40.328207+00:00", "meta": {"OBJECT_NAME": "STARLINK-35604", "OBJECT_ID": "2025-278M", "EPOCH": "2025-12-19T06:00:02.000160", "MEAN_MOTION": 15.67851299, "ECCENTRICITY": 0.00018135, "INCLINATION": 42.9994, "RA_OF_ASC_NODE": 212.4158, "ARG_OF_PERICENTER": 268.7151, "MEAN_ANOMALY": 87.7546, "EPHEMERIS_TYPE": 0, "CLASSIFICATION_TYPE": "U", "NORAD_CAT_ID": 66802, "ELEMENT_SET_NO": 999, "REV_AT_EPOCH": 400, "BSTAR": -0.019418503, "MEAN_MOTION_DOT": -0.01946224, "MEAN_MOTION_DDOT": 0}, "tle": {"line1": "1 66802U 25278M   25353.25002315 -.01946224  00000+0 -19419-1 0  9996", "line2": "2 66802  42.9994 212.4158 0001813 268.7151  87.7546 15.67851299  4001"}}, "geometry": {"type": "Point", "coordinates": [21.80055166433244, 6.820369588064448]}}, {"type": "Feature", "properties": {"norad_id": 66803, "name": "STARLINK-35565", "group": "last-30-days", "lat": 4.218745656959722, "lon": 24.624321571109284, "alt_km": 370.93253654902674, "timestamp": "2025-12-19T18:58:40.328217+00:00", "meta": {"OBJECT_NAME": "STARLINK-35565", "OBJECT_ID": "2025-278N", "EPOCH": "2025-12-19T06:00:02.000160", "MEAN_MOTION": 15.67852389, "ECCENTRICITY": 0.00018434, "INCLINATION": 42.9991, "RA_OF_ASC_NODE": 212.4055, "ARG_OF_PERICENTER": 266.6372, "MEAN_ANOMALY": 93.6647, "EPHEMERIS_TYPE": 0, "CLASSIFICATION_TYPE": "U", "NORAD_CAT_ID": 66803, "ELEMENT_SET_NO": 999, "REV_AT_EPOCH": 409, "BSTAR": -0.019396231, "MEAN_MOTION_DOT": -0.01944354, "MEAN_MOTION_DDOT": 0}, "tle": {"line1": "1 66803U 25278N   25353.25002315 -.01944354  00000+0 -19396-1 0  9993", "line2": "2 66803  42.9991 212.4055 0001843 266.6372  93.6647 15.67852389  4098"}}, "geometry": {"type": "Point", "coordinates": [24.624321571109284, 4.218745656959722]}}, {"type": "Feature", "properties": {"norad_id": 66804, "name": "STARLINK-36038", "group": "last-30-days", "lat": 2.917072530081688, "lon": 26.02557222302719, "alt_km": 371.1101290578754, "timestamp": "2025-12-19T18:58:40.328230+00:00", "meta": {"OBJECT_NAME": "STARLINK-36038", "OBJECT_ID": "2025-278P", "EPOCH": "2025-12-19T06:00:02.000160", "MEAN_MOTION": 15.67855024, "ECCENTRICITY": 0.0001849, "INCLINATION": 42.9993, "RA_OF_ASC_NODE": 212.4011, "ARG_OF_PERICENTER": 267.733, "MEAN_ANOMALY": 94.4855, "EPHEMERIS_TYPE": 0, "CLASSIFICATION_TYPE": "U", "NORAD_CAT_ID": 66804, "ELEMENT_SET_NO": 999, "REV_AT_EPOCH": 400, "BSTAR": -0.019467768, "MEAN_MOTION_DOT": -0.01950878, "MEAN_MOTION_DDOT": 0}, "tle": {"line1": "1 66804U 25278P   25353.25002315 -.01950878  00000+0 -19468-1 0  9992", "line2": "2 66804  42.9993 212.4011 0001849 267.7330  94.4855 15.67855024  4005"}}, "geometry": {"type": "Point", "coordinates": [26.02557222302719, 2.917072530081688]}}]}